
    END TwoLineElement


    Begin TwoLineElement

    Enabled             Yes

    Source              OnlineAGI
    LastUpdated         1 Aug 2016 07:32:26.000

    SwitchMethod        Epoch
    SwitchEpoch         1 Jul 2016 14:52:58.575

    TLE
    1 40697U 15028A   16183.62012240 -.00000028  00000-0  58225-5 0  9996
    2 40697  98.5666 257.6278 0001334  96.0672 264.0669 14.30814901 53569

    END TwoLineElement


    Begin TwoLineElement

    Enabled             Yes

    Source              OnlineAGI
    LastUpdated         1 Aug 2016 07:32:26.000

    SwitchMethod        Epoch
    SwitchEpoch         2 Jul 2016 19:24:52.064

    TLE
    1 40697U 15028A   16184.80893593 -.00000053  00000-0 -37610-5 0  9999
    2 40697  98.5669 258.7995 0001324  91.5980 268.5348 14.30814791 53730

    END TwoLineElement


    Begin TwoLineElement

    Enabled             Yes

    Source              OnlineAGI
    LastUpdated         1 Aug 2016 07:32:26.000

    SwitchMethod        Epoch
    SwitchEpoch         3 Jul 2016 17:13:57.612

    TLE
    1 40697U 15028A   16185.71802792  .00000020  00000-0  24343-4 0  9991
    2 40697  98.5670 259.6955 0001283  93.8479 266.2843 14.30815286 53869

    END TwoLineElement


    Begin TwoLineElement

    Enabled             Yes

    Source              OnlineAGI
    LastUpdated         1 Aug 2016 07:32:26.000

    SwitchMethod        Epoch
    SwitchEpoch         4 Jul 2016 01:37:27.468

    TLE
    1 40697U 15028A   16186.06767903  .00000011  00000-0  21021-4 0  9994
    2 40697  98.5670 260.0401 0001269  95.1938 264.9377 14.30815096 53912

    END TwoLineElement


    Begin TwoLineElement

    Enabled             Yes

    Source              OnlineAGI
    LastUpdated         1 Aug 2016 07:32:26.000

    SwitchMethod        Epoch
    SwitchEpoch         4 Jul 2016 20:05:09.129

    TLE
    1 40697U 15028A   16186.83691121 -.00000086  00000-0 -16026-4 0  9990
    2 40697  98.5671 260.7984 0001247  94.9330 265.1976 14.30814736 54026

    END TwoLineElement


    Begin TwoLineElement

    Enabled             Yes

    Source              OnlineAGI
    LastUpdated         1 Aug 2016 07:32:26.000

    SwitchMethod        Epoch
    SwitchEpoch         5 Jul 2016 04:28:39.015

    TLE
    1 40697U 15028A   16187.18656267 -.00000040  00000-0  12021-5 0  9992
    2 40697  98.5668 261.1432 0001229  93.2965 266.8373 14.30815008 54078

    END TwoLineElement


    Begin TwoLineElement

    Enabled             Yes

    Source              OnlineAGI
    LastUpdated         1 Aug 2016 07:32:26.000

    SwitchMethod        Epoch
    SwitchEpoch         5 Jul 2016 11:11:26.870

    TLE
    1 40697U 15028A   16187.46628322 -.00000004  00000-0  14971-4 0  9999
    2 40697  98.5667 261.4186 0001216  95.6460 264.4880 14.30815237 54114

    END TwoLineElement


    Begin TwoLineElement

    Enabled             Yes

    Source              OnlineAGI
    LastUpdated         1 Aug 2016 07:32:26.000

    SwitchMethod        Epoch
    SwitchEpoch         5 Jul 2016 17:54:14.714

    TLE
    1 40697U 15028A   16187.74600364 -.00000030  00000-0  52254-5 0  9992
    2 40697  98.5668 261.6944 0001218  93.0198 267.1122 14.30815199 54151

    END TwoLineElement


    Begin TwoLineElement

    Enabled             Yes

    Source              OnlineAGI
    LastUpdated         1 Aug 2016 07:32:26.000

    SwitchMethod        Epoch
    SwitchEpoch         6 Jul 2016 14:02:38.295

    TLE
    1 40697U 15028A   16188.58516545  .00000062  00000-0  40347-4 0  9995
    2 40697  98.5668 262.5216 0001211  95.5092 264.6234 14.30815771 54271

    END TwoLineElement


    Begin TwoLineElement

    Enabled             Yes

    Source              OnlineAGI
    LastUpdated         1 Aug 2016 07:32:26.000

    SwitchMethod        Epoch
    SwitchEpoch         7 Jul 2016 00:06:50.086

    TLE
    1 40697U 15028A   16189.00474637  .00000070  00000-0  43183-4 0  9998
    2 40697  98.5668 262.9353 0001213  96.7896 263.3413 14.30815680 54335

    END TwoLineElement


    Begin TwoLineElement

    Enabled             Yes

    Source              OnlineAGI
    LastUpdated         1 Aug 2016 07:32:26.000

    SwitchMethod        Epoch
    SwitchEpoch         7 Jul 2016 20:15:13.697

    TLE
    1 40697U 15028A   16189.84390853 -.00000038  00000-0  20772-5 0  9992
    2 40697  98.5670 263.7626 0001220  98.8616 261.2688 14.30815298 54450

    END TwoLineElement


    Begin TwoLineElement

    Enabled             Yes

    Source              OnlineAGI
    LastUpdated         1 Aug 2016 07:32:26.000

    SwitchMethod        Epoch
    SwitchEpoch         8 Jul 2016 04:38:43.569

    TLE
    1 40697U 15028A   16190.19355983 -.00000044  00000-0 -29787-6 0  9991
    2 40697  98.5669 264.1074 0001230  97.5668 262.5658 14.30815331 54509

    END TwoLineElement


    Begin TwoLineElement

    Enabled             Yes

    Source              OnlineAGI
    LastUpdated         1 Aug 2016 07:32:26.000

    SwitchMethod        Epoch
    SwitchEpoch         8 Jul 2016 18:04:19.298

    TLE
    1 40697U 15028A   16190.75300114 -.00000047  00000-0 -12973-5 0  9990
    2 40697  98.5669 264.6587 0001242  98.4540 261.6794 14.30815460 54587

    END TwoLineElement


    Begin TwoLineElement

    Enabled             Yes

    Source              OnlineAGI
    LastUpdated         1 Aug 2016 07:32:26.000

    SwitchMethod        Epoch
    SwitchEpoch         9 Jul 2016 07:29:55.054

    TLE
    1 40697U 15028A   16191.31244275 -.00000014  00000-0  11334-4 0  9990
    2 40697  98.5668 265.2105 0001255 100.0714 260.0637 14.30815605 54665

    END TwoLineElement


    Begin TwoLineElement

    Enabled             Yes

    Source              OnlineAGI
    LastUpdated         1 Aug 2016 07:32:26.000

    SwitchMethod        Epoch
    SwitchEpoch         9 Jul 2016 20:55:30.715

    TLE
    1 40697U 15028A   16191.87188328 -.00000029  00000-0  54795-5 0  9992
    2 40697  98.5666 265.7614 0001322 101.6467 258.4840 14.30815493 54741

    END TwoLineElement


    Begin TwoLineElement

    Enabled             Yes

    Source              OnlineAGI
    LastUpdated         1 Aug 2016 07:32:26.000

    SwitchMethod        Epoch
    SwitchEpoch         10 Jul 2016 12:01:48.435

    TLE
    1 40697U 15028A   16192.50125504  .00000022  00000-0  24852-4 0  9992
    2 40697  98.5667 266.3814 0001312 100.8087 259.3245 14.30815852 54837

    END TwoLineElement


    Begin TwoLineElement

    Enabled             Yes

    Source              OnlineAGI
    LastUpdated         1 Aug 2016 07:32:26.000

    SwitchMethod        Epoch
    SwitchEpoch         10 Jul 2016 17:03:54.333

    TLE
    1 40697U 15028A   16192.71104552  .00000027  00000-0  26987-4 0  9991
    2 40697  98.5668 266.5881 0001372 102.1320 258.0022 14.30815933 54867

    END TwoLineElement


    Begin TwoLineElement

    Enabled             Yes

    Source              OnlineAGI
    LastUpdated         1 Aug 2016 07:32:26.000

    SwitchMethod        Epoch
    SwitchEpoch         11 Jul 2016 21:35:47.733

    TLE
    1 40697U 15028A   16193.89985802 -.00000023  00000-0  78160-5 0  9994
    2 40697  98.5664 267.7595 0001381  99.9820 260.1496 14.30815760 55033

    END TwoLineElement


    Begin TwoLineElement

    Enabled             Yes

    Source              OnlineAGI
    LastUpdated         1 Aug 2016 07:32:26.000

    SwitchMethod        Epoch
    SwitchEpoch         12 Jul 2016 04:18:35.639

    TLE
    1 40697U 15028A   16194.17957915  .00000023  00000-0  25313-4 0  9990
    2 40697  98.5663 268.0350 0001378 102.0057 258.1306 14.30816097 55074

    END TwoLineElement


    Begin TwoLineElement

    Enabled             Yes

    Source              OnlineAGI
    LastUpdated         1 Aug 2016 07:32:26.000

    SwitchMethod        Epoch
    SwitchEpoch         12 Jul 2016 17:44:11.287

    TLE
    1 40697U 15028A   16194.73901953  .00000022  00000-0  25041-4 0  9990
    2 40697  98.5661 268.5863 0001312  98.6279 261.5044 14.30816272 55151

    END TwoLineElement


    Begin TwoLineElement

    Enabled             Yes

    Source              OnlineAGI
    LastUpdated         1 Aug 2016 07:32:26.000

    SwitchMethod        Epoch
    SwitchEpoch         13 Jul 2016 08:50:28.982

    TLE
    1 40697U 15028A   16195.36839100  .00000063  00000-0  40518-4 0  9995
    2 40697  98.5660 269.2060 0001302  99.6548 260.4789 14.30816498 55240
